{
  "type": "FeatureCollection",
  "cc0_dedication": "CC0 1.0 Universal (Public Domain Dedication). Coarse original cartography authored by the Bible Atlas project, 2026 -- hand-drawn from general historical-geography knowledge of these polities' well-documented approximate extents, cross-checked against en.wikipedia.org/wiki/Hittites (fetched during authoring). NOT copied or traced from any third-party dataset (in particular, the GPL-3.0 data formerly at data/raw/borders was never opened while authoring this file). See LICENSES.md for authorship notes and the full list of sources consulted.",
  "features": [
    {
      "type": "Feature",
      "properties": { "name": "Egypt" },
      "geometry": {
        "type": "Polygon",
        "coordinates": [[
          [29.9, 31.4], [30.4, 31.55], [31.3, 31.5], [31.8, 31.45], [32.5, 31.2],
          [33.8, 31.3], [34.5, 31.9], [35.2, 32.9], [35.3, 33.5], [35.6, 34.1],
          [35.9, 35.3], [35.3, 32.0], [33.5, 29.8], [32.5, 28.0], [31.5, 25.5],
          [32.9, 24.05], [32.5, 23.9], [30.7, 25.3], [30.1, 27.6], [29.7, 29.8],
          [29.9, 31.4]
        ]]
      }
    },
    {
      "type": "Feature",
      "properties": { "name": "Hittite Empire" },
      "geometry": {
        "type": "Polygon",
        "coordinates": [[
          [27.0, 39.0], [29.0, 40.5], [32.0, 41.5], [35.0, 41.3], [37.5, 40.0],
          [38.0, 37.5], [37.2, 36.2], [36.0, 35.8], [35.5, 37.0], [34.5, 38.0],
          [32.0, 39.0], [29.0, 38.5], [27.0, 39.0]
        ]]
      }
    },
    {
      "type": "Feature",
      "properties": { "name": "Babylonia" },
      "geometry": {
        "type": "Polygon",
        "coordinates": [[
          [42.5, 35.0], [44.0, 34.2], [45.5, 33.0], [46.5, 31.5], [47.5, 30.5],
          [47.2, 29.8], [46.0, 30.2], [44.5, 31.0], [43.0, 32.5], [42.0, 34.0],
          [42.5, 35.0]
        ]]
      }
    },
    {
      "type": "Feature",
      "properties": { "name": "Assyria" },
      "geometry": {
        "type": "Polygon",
        "coordinates": [[
          [42.0, 37.2], [43.5, 37.0], [44.0, 36.0], [43.6, 35.0], [42.5, 34.8],
          [41.8, 35.8], [42.0, 37.2]
        ]]
      }
    }
  ]
}
