{
  "type": "FeatureCollection",
  "cc0_dedication": "CC0 1.0 Universal (Public Domain Dedication). Coarse original cartography authored by the Bible Atlas project, 2026 -- hand-drawn from general historical-geography knowledge of these polities' well-documented approximate extents, NOT copied or traced from any third-party dataset (in particular, the GPL-3.0 data formerly at data/raw/borders was never opened while authoring this file). See LICENSES.md for authorship notes and the specific public sources consulted.",
  "features": [
    {
      "type": "Feature",
      "properties": { "name": "Egypt" },
      "geometry": {
        "type": "Polygon",
        "coordinates": [[
          [29.9, 31.4], [30.4, 31.55], [31.3, 31.5], [31.8, 31.45], [32.2, 30.8],
          [31.4, 29.0], [30.9, 27.0], [31.4, 25.0], [31.15, 21.9], [30.7, 22.1],
          [30.3, 25.3], [30.0, 27.6], [29.7, 29.8], [29.9, 31.4]
        ]]
      }
    },
    {
      "type": "Feature",
      "properties": { "name": "Babylonia" },
      "geometry": {
        "type": "Polygon",
        "coordinates": [[
          [41.5, 36.0], [43.5, 35.5], [45.5, 34.0], [46.8, 32.5], [47.8, 31.0],
          [48.0, 30.2], [47.4, 29.6], [46.0, 30.0], [44.5, 30.6], [42.8, 31.8],
          [41.0, 33.5], [40.5, 35.0], [41.5, 36.0]
        ]]
      }
    },
    {
      "type": "Feature",
      "properties": { "name": "Elam" },
      "geometry": {
        "type": "Polygon",
        "coordinates": [[
          [47.6, 33.3], [49.8, 33.8], [50.8, 32.0], [50.2, 29.2], [48.3, 28.2],
          [46.8, 29.7], [46.6, 32.1], [47.6, 33.3]
        ]]
      }
    }
  ]
}
