{
  "type": "FeatureCollection",
  "cc0_dedication": "CC0 1.0 Universal (Public Domain Dedication). Coarse original cartography authored by the Bible Atlas project, 2026 -- hand-drawn from general historical-geography knowledge of these polities' well-documented approximate extents, cross-checked against en.wikipedia.org/wiki/Seleucid_Empire and en.wikipedia.org/wiki/Ptolemaic_Kingdom (both fetched during authoring). NOT copied or traced from any third-party dataset (in particular, the GPL-3.0 data formerly at data/raw/borders was never opened while authoring this file). See LICENSES.md for authorship notes and the full list of sources consulted.",
  "features": [
    {
      "type": "Feature",
      "properties": { "name": "Seleucid Empire" },
      "geometry": {
        "type": "Polygon",
        "coordinates": [[
          [27.5, 39.5], [30.0, 40.0], [33.0, 39.0], [36.5, 37.5], [36.2, 36.0],
          [35.7, 35.0], [36.3, 33.5], [38.0, 32.0], [42.0, 31.0], [44.5, 29.5],
          [48.5, 27.5], [52.0, 29.0], [54.0, 33.0], [52.0, 37.0], [45.0, 39.0],
          [38.0, 39.5], [27.5, 39.5]
        ]]
      }
    },
    {
      "type": "Feature",
      "properties": { "name": "Ptolemaic Egypt" },
      "geometry": {
        "type": "Polygon",
        "coordinates": [[
          [29.9, 31.4], [30.4, 31.55], [31.3, 31.5], [31.8, 31.45], [32.3, 31.0],
          [31.0, 27.5], [32.9, 24.05], [32.5, 23.9], [30.8, 25.5], [30.2, 28.0],
          [27.0, 30.5], [24.0, 32.0], [20.0, 32.3], [21.5, 30.5], [26.0, 29.5],
          [29.7, 30.0], [29.9, 31.4]
        ]]
      }
    }
  ]
}
