{
  "type": "FeatureCollection",
  "cc0_dedication": "CC0 1.0 Universal (Public Domain Dedication). Coarse original cartography authored by the Bible Atlas project, 2026 -- hand-drawn from general historical-geography knowledge of this empire's well-documented approximate extent, cross-checked against en.wikipedia.org/wiki/Wars_of_Alexander_the_Great (fetched during authoring). NOT copied or traced from any third-party dataset (in particular, the GPL-3.0 data formerly at data/raw/borders was never opened while authoring this file). See LICENSES.md for authorship notes and the full list of sources consulted.",
  "features": [
    {
      "type": "Feature",
      "properties": { "name": "Empire of Alexander the Great" },
      "geometry": {
        "type": "Polygon",
        "coordinates": [[
          [21.0, 40.5], [23.5, 38.0], [27.0, 37.0], [29.0, 39.0], [33.0, 36.5],
          [35.5, 34.5], [35.9, 35.3], [35.0, 33.0], [32.5, 31.0], [29.9, 31.4],
          [27.0, 30.5], [24.0, 29.0], [32.9, 24.0], [35.5, 29.5], [40.0, 30.5],
          [44.5, 29.5], [48.5, 27.0], [54.0, 26.5], [61.0, 25.5], [68.0, 24.5],
          [71.0, 32.0], [68.0, 35.5], [62.0, 38.0], [54.0, 40.0], [47.0, 41.5],
          [40.0, 42.0], [32.0, 42.0], [26.0, 41.5], [21.0, 40.5]
        ]]
      }
    }
  ]
}
