{
  "type": "FeatureCollection",
  "cc0_dedication": "CC0 1.0 Universal (Public Domain Dedication). Coarse original cartography authored by the Bible Atlas project, 2026 -- hand-drawn from general historical-geography knowledge of these polities' well-documented approximate extents, NOT copied or traced from any third-party dataset (in particular, the GPL-3.0 data formerly at data/raw/borders was never opened while authoring this file). See LICENSES.md for authorship notes and the specific public sources consulted.",
  "features": [
    {
      "type": "Feature",
      "properties": { "name": "Egypt" },
      "geometry": {
        "type": "Polygon",
        "coordinates": [[
          [29.9, 31.4], [30.4, 31.55], [31.3, 31.5], [31.8, 31.45], [32.3, 31.0],
          [31.5, 29.5], [31.0, 27.5], [32.9, 24.05], [32.5, 23.9], [30.8, 25.5],
          [30.2, 28.0], [29.7, 30.0], [29.9, 31.4]
        ]]
      }
    },
    {
      "type": "Feature",
      "properties": { "name": "Sumer" },
      "geometry": {
        "type": "Polygon",
        "coordinates": [[
          [44.0, 33.3], [45.5, 33.0], [46.5, 32.0], [47.3, 31.0], [47.8, 30.5],
          [47.5, 29.8], [46.5, 30.2], [45.3, 31.0], [44.3, 32.2], [44.0, 33.3]
        ]]
      }
    },
    {
      "type": "Feature",
      "properties": { "name": "Elam" },
      "geometry": {
        "type": "Polygon",
        "coordinates": [[
          [47.5, 33.0], [49.5, 33.5], [50.5, 32.0], [50.0, 29.5], [48.5, 28.5],
          [47.0, 30.0], [46.8, 32.0], [47.5, 33.0]
        ]]
      }
    }
  ]
}
