{
  "type": "FeatureCollection",
  "cc0_dedication": "CC0 1.0 Universal (Public Domain Dedication). Coarse original cartography authored by the Bible Atlas project, 2026 -- hand-drawn from general historical-geography knowledge of these polities' well-documented approximate extents, cross-checked against en.wikipedia.org/wiki/Achaemenid_Empire (fetched during authoring). NOT copied or traced from any third-party dataset (in particular, the GPL-3.0 data formerly at data/raw/borders was never opened while authoring this file). See LICENSES.md for authorship notes and the full list of sources consulted.",
  "features": [
    {
      "type": "Feature",
      "properties": { "name": "Achaemenid Persian Empire" },
      "geometry": {
        "type": "Polygon",
        "coordinates": [[
          [23.0, 41.0], [29.0, 39.0], [27.5, 36.0], [33.0, 36.5], [35.5, 34.5],
          [35.9, 35.3], [35.0, 33.0], [32.5, 31.0], [29.9, 31.4], [25.5, 32.0],
          [20.0, 32.3], [24.0, 29.0], [32.9, 24.0], [35.5, 29.5], [40.0, 30.5],
          [44.5, 29.5], [48.5, 27.0], [54.0, 26.5], [61.0, 25.5], [67.0, 24.8],
          [70.0, 30.0], [68.0, 35.0], [62.0, 38.0], [54.0, 40.0], [47.0, 41.5],
          [40.0, 42.0], [32.0, 42.0], [23.0, 41.0]
        ]]
      }
    },
    {
      "type": "Feature",
      "properties": { "name": "Yehud" },
      "geometry": {
        "type": "Polygon",
        "coordinates": [[
          [35.15, 32.0], [35.3, 31.85], [35.5, 31.5], [35.3, 31.0], [34.85, 31.05],
          [34.75, 31.5], [34.9, 31.9], [35.15, 32.0]
        ]]
      }
    }
  ]
}
