{
  "type": "FeatureCollection",
  "cc0_dedication": "CC0 1.0 Universal (Public Domain Dedication). Coarse original cartography authored by the Bible Atlas project, 2026 -- hand-drawn from general historical-geography knowledge of these polities' well-documented approximate extents, cross-checked against en.wikipedia.org/wiki/Neo-Assyrian_Empire (fetched during authoring). NOT copied or traced from any third-party dataset (in particular, the GPL-3.0 data formerly at data/raw/borders was never opened while authoring this file). See LICENSES.md for authorship notes and the full list of sources consulted.",
  "features": [
    {
      "type": "Feature",
      "properties": { "name": "Neo-Assyrian Empire" },
      "geometry": {
        "type": "Polygon",
        "coordinates": [[
          [35.0, 38.0], [38.5, 38.5], [41.5, 38.0], [44.5, 37.5], [46.5, 36.0],
          [48.5, 34.0], [50.5, 32.5], [49.5, 30.0], [48.0, 29.0], [46.5, 29.5],
          [44.5, 30.0], [42.5, 31.5], [40.0, 32.5], [37.0, 32.0], [35.5, 33.0],
          [34.5, 33.5], [35.0, 34.3], [35.7, 35.2], [36.2, 36.0], [35.5, 37.0],
          [35.0, 38.0]
        ]]
      }
    },
    {
      "type": "Feature",
      "properties": { "name": "Kingdom of Judah" },
      "geometry": {
        "type": "Polygon",
        "coordinates": [[
          [35.15, 32.0], [35.3, 31.85], [35.5, 31.5], [35.3, 31.0], [34.85, 31.05],
          [34.75, 31.5], [34.9, 31.9], [35.15, 32.0]
        ]]
      }
    },
    {
      "type": "Feature",
      "properties": { "name": "Egypt" },
      "geometry": {
        "type": "Polygon",
        "coordinates": [[
          [29.9, 31.4], [30.4, 31.55], [31.3, 31.5], [31.8, 31.45], [32.3, 31.0],
          [31.5, 29.5], [31.0, 27.5], [32.9, 24.05], [32.5, 23.9], [30.8, 25.5],
          [30.2, 28.0], [29.7, 30.0], [29.9, 31.4]
        ]]
      }
    }
  ]
}
