{
  "type": "FeatureCollection",
  "cc0_dedication": "CC0 1.0 Universal (Public Domain Dedication). Coarse original cartography authored by the Bible Atlas project, 2026 -- hand-drawn from general historical-geography knowledge of these polities' well-documented approximate extents, cross-checked against en.wikipedia.org/wiki/Roman_Empire and en.wikipedia.org/wiki/Parthian_Empire (both fetched during authoring). NOT copied or traced from any third-party dataset (in particular, the GPL-3.0 data formerly at data/raw/borders was never opened while authoring this file). See LICENSES.md for authorship notes and the full list of sources consulted.",
  "features": [
    {
      "type": "Feature",
      "properties": { "name": "Roman Empire" },
      "geometry": {
        "type": "Polygon",
        "coordinates": [[
          [-6.0, 35.8], [3.0, 43.0], [12.5, 41.9], [19.5, 40.0], [21.0, 40.5],
          [26.0, 41.7], [29.5, 41.0], [33.0, 39.0], [37.0, 38.5], [39.5, 37.0],
          [36.5, 37.0], [35.9, 35.3], [35.0, 33.0], [32.3, 31.0], [29.9, 31.4],
          [32.9, 24.05], [31.0, 27.5], [20.0, 32.3], [10.3, 36.85], [-6.0, 35.8]
        ]]
      }
    },
    {
      "type": "Feature",
      "properties": { "name": "Parthian Empire" },
      "geometry": {
        "type": "Polygon",
        "coordinates": [[
          [39.5, 37.0], [42.0, 36.5], [44.5, 35.0], [44.0, 32.0], [47.0, 29.5],
          [51.0, 27.0], [56.0, 26.0], [62.0, 26.0], [66.0, 29.0], [68.0, 33.0],
          [63.0, 37.0], [54.0, 39.5], [46.0, 40.0], [39.5, 37.0]
        ]]
      }
    }
  ]
}
